[
    {
        "OBJECT_NAME": "GPS BIII-2  (PRN 18)",
        "OBJECT_ID": "2019-056A",
        "EPOCH": "2025-11-17T12:09:25.469856",
        "MEAN_MOTION": 2.00565688,
        "ECCENTRICITY": 0.0057684,
        "INCLINATION": 55.7305,
        "RA_OF_ASC_NODE": 339.5546,
        "ARG_OF_PERICENTER": 197.961,
        "MEAN_ANOMALY": 342.6622,
        "EPHEMERIS_TYPE": 0,
        "CLASSIFICATION_TYPE": "U",
        "NORAD_CAT_ID": 44506,
        "ELEMENT_SET_NO": 999,
        "REV_AT_EPOCH": 4582,
        "BSTAR": 0,
        "MEAN_MOTION_DOT": -8.3e-7,
        "MEAN_MOTION_DDOT": 0
    },
    {
        "OBJECT_NAME": "BEIDOU-3 M24 (C46)",
        "OBJECT_ID": "2019-061A",
        "EPOCH": "2025-11-17T03:29:11.632992",
        "MEAN_MOTION": 1.86229438,
        "ECCENTRICITY": 0.00094817,
        "INCLINATION": 54.4002,
        "RA_OF_ASC_NODE": 189.8803,
        "ARG_OF_PERICENTER": 20.9663,
        "MEAN_ANOMALY": 339.1707,
        "EPHEMERIS_TYPE": 0,
        "CLASSIFICATION_TYPE": "U",
        "NORAD_CAT_ID": 44542,
        "ELEMENT_SET_NO": 999,
        "REV_AT_EPOCH": 4184,
        "BSTAR": 0,
        "MEAN_MOTION_DOT": 6.8e-7,
        "MEAN_MOTION_DDOT": 0
    },
    {
        "OBJECT_NAME": "BEIDOU-3 M23 (C45)",
        "OBJECT_ID": "2019-061B",
        "EPOCH": "2025-11-18T01:51:52.976736",
        "MEAN_MOTION": 1.86229698,
        "ECCENTRICITY": 0.0006037,
        "INCLINATION": 54.3984,
        "RA_OF_ASC_NODE": 189.8171,
        "ARG_OF_PERICENTER": 17.5205,
        "MEAN_ANOMALY": 160.5858,
        "EPHEMERIS_TYPE": 0,
        "CLASSIFICATION_TYPE": "U",
        "NORAD_CAT_ID": 44543,
        "ELEMENT_SET_NO": 999,
        "REV_AT_EPOCH": 4186,
        "BSTAR": 0,
        "MEAN_MOTION_DOT": 7.6e-7,
        "MEAN_MOTION_DDOT": 0
    },
    {
        "OBJECT_NAME": "EUTELSAT 5 WEST B (EGNOS/PRN 121)",
        "OBJECT_ID": "2019-067A",
        "EPOCH": "2025-11-18T02:11:06.135072",
        "MEAN_MOTION": 1.00280977,
        "ECCENTRICITY": 0.0003497,
        "INCLINATION": 0.0742,
        "RA_OF_ASC_NODE": 323.8077,
        "ARG_OF_PERICENTER": 270.6189,
        "MEAN_ANOMALY": 210.7672,
        "EPHEMERIS_TYPE": 0,
        "CLASSIFICATION_TYPE": "U",
        "NORAD_CAT_ID": 44624,
        "ELEMENT_SET_NO": 999,
        "REV_AT_EPOCH": 2232,
        "BSTAR": 0,
        "MEAN_MOTION_DOT": -2.3e-7,
        "MEAN_MOTION_DDOT": 0
    },
    {
        "OBJECT_NAME": "BEIDOU-3 IGSO-3 (C40)",
        "OBJECT_ID": "2019-073A",
        "EPOCH": "2025-11-16T07:25:50.890656",
        "MEAN_MOTION": 1.00251352,
        "ECCENTRICITY": 0.00446068,
        "INCLINATION": 55.1704,
        "RA_OF_ASC_NODE": 283.202,
        "ARG_OF_PERICENTER": 191.7526,
        "MEAN_ANOMALY": 168.069,
        "EPHEMERIS_TYPE": 0,
        "CLASSIFICATION_TYPE": "U",
        "NORAD_CAT_ID": 44709,
        "ELEMENT_SET_NO": 999,
        "REV_AT_EPOCH": 2232,
        "BSTAR": 0,
        "MEAN_MOTION_DOT": -2.15e-6,
        "MEAN_MOTION_DDOT": 0
    },
    {
        "OBJECT_NAME": "BEIDOU-3 M22 (C44)",
        "OBJECT_ID": "2019-078A",
        "EPOCH": "2025-11-16T23:39:12.440160",
        "MEAN_MOTION": 1.86232113,
        "ECCENTRICITY": 0.00053088,
        "INCLINATION": 54.1319,
        "RA_OF_ASC_NODE": 307.2897,
        "ARG_OF_PERICENTER": 21.9465,
        "MEAN_ANOMALY": 338.0712,
        "EPHEMERIS_TYPE": 0,
        "CLASSIFICATION_TYPE": "U",
        "NORAD_CAT_ID": 44793,
        "ELEMENT_SET_NO": 999,
        "REV_AT_EPOCH": 4069,
        "BSTAR": 0,
        "MEAN_MOTION_DOT": -8.3e-7,
        "MEAN_MOTION_DDOT": 0
    },
    {
        "OBJECT_NAME": "BEIDOU-3 M21 (C43)",
        "OBJECT_ID": "2019-078B",
        "EPOCH": "2025-11-17T02:56:36.458880",
        "MEAN_MOTION": 1.86227811,
        "ECCENTRICITY": 0.000358,
        "INCLINATION": 54.105,
        "RA_OF_ASC_NODE": 307.2504,
        "ARG_OF_PERICENTER": 8.1705,
        "MEAN_ANOMALY": 351.8298,
        "EPHEMERIS_TYPE": 0,
        "CLASSIFICATION_TYPE": "U",
        "NORAD_CAT_ID": 44794,
        "ELEMENT_SET_NO": 999,
        "REV_AT_EPOCH": 4070,
        "BSTAR": 0,
        "MEAN_MOTION_DOT": -8.4e-7,
        "MEAN_MOTION_DDOT": 0
    },
    {
        "OBJECT_NAME": "COSMOS 2544 (759)",
        "OBJECT_ID": "2019-088A",
        "EPOCH": "2025-11-17T09:25:00.379200",
        "MEAN_MOTION": 2.13101948,
        "ECCENTRICITY": 0.00131346,
        "INCLINATION": 65.447,
        "RA_OF_ASC_NODE": 80.806,
        "ARG_OF_PERICENTER": 247.1737,
        "MEAN_ANOMALY": 112.6691,
        "EPHEMERIS_TYPE": 0,
        "CLASSIFICATION_TYPE": "U",
        "NORAD_CAT_ID": 44850,
        "ELEMENT_SET_NO": 999,
        "REV_AT_EPOCH": 4620,
        "BSTAR": 0,
        "MEAN_MOTION_DOT": -2.8e-7,
        "MEAN_MOTION_DDOT": 0
    },
    {
        "OBJECT_NAME": "BEIDOU-3 M19 (C41)",
        "OBJECT_ID": "2019-090A",
        "EPOCH": "2025-11-17T12:13:31.987200",
        "MEAN_MOTION": 1.86231519,
        "ECCENTRICITY": 0.00169702,
        "INCLINATION": 56.3721,
        "RA_OF_ASC_NODE": 69.7981,
        "ARG_OF_PERICENTER": 284.3972,
        "MEAN_ANOMALY": 170.4268,
        "EPHEMERIS_TYPE": 0,
        "CLASSIFICATION_TYPE": "U",
        "NORAD_CAT_ID": 44864,
        "ELEMENT_SET_NO": 999,
        "REV_AT_EPOCH": 4029,
        "BSTAR": 0,
        "MEAN_MOTION_DOT": -6.5e-7,
        "MEAN_MOTION_DDOT": 0
    },
    {
        "OBJECT_NAME": "BEIDOU-3 M20 (C42)",
        "OBJECT_ID": "2019-090B",
        "EPOCH": "2025-11-17T08:21:15.784704",
        "MEAN_MOTION": 1.86231498,
        "ECCENTRICITY": 0.00141043,
        "INCLINATION": 56.3736,
        "RA_OF_ASC_NODE": 69.8376,
        "ARG_OF_PERICENTER": 297.7158,
        "MEAN_ANOMALY": 138.5807,
        "EPHEMERIS_TYPE": 0,
        "CLASSIFICATION_TYPE": "U",
        "NORAD_CAT_ID": 44865,
        "ELEMENT_SET_NO": 999,
        "REV_AT_EPOCH": 4027,
        "BSTAR": 0,
        "MEAN_MOTION_DOT": -6.5e-7,
        "MEAN_MOTION_DDOT": 0
    },
    {
        "OBJECT_NAME": "BEIDOU-3 G2 (C60)",
        "OBJECT_ID": "2020-017A",
        "EPOCH": "2025-11-18T02:35:18.816288",
        "MEAN_MOTION": 1.00273144,
        "ECCENTRICITY": 0.0003846,
        "INCLINATION": 2.9543,
        "RA_OF_ASC_NODE": 43.2948,
        "ARG_OF_PERICENTER": 265.5771,
        "MEAN_ANOMALY": 227.4231,
        "EPHEMERIS_TYPE": 0,
        "CLASSIFICATION_TYPE": "U",
        "NORAD_CAT_ID": 45344,
        "ELEMENT_SET_NO": 999,
        "REV_AT_EPOCH": 2114,
        "BSTAR": 0,
        "MEAN_MOTION_DOT": -1.25e-6,
        "MEAN_MOTION_DDOT": 0
    },
    {
        "OBJECT_NAME": "COSMOS 2545 (760)",
        "OBJECT_ID": "2020-018A",
        "EPOCH": "2025-11-18T01:22:52.675104",
        "MEAN_MOTION": 2.13102595,
        "ECCENTRICITY": 0.0012208,
        "INCLINATION": 64.4839,
        "RA_OF_ASC_NODE": 319.8357,
        "ARG_OF_PERICENTER": 246.5441,
        "MEAN_ANOMALY": 113.3468,
        "EPHEMERIS_TYPE": 0,
        "CLASSIFICATION_TYPE": "U",
        "NORAD_CAT_ID": 45358,
        "ELEMENT_SET_NO": 999,
        "REV_AT_EPOCH": 4416,
        "BSTAR": 0,
        "MEAN_MOTION_DOT": -5.0e-7,
        "MEAN_MOTION_DDOT": 0
    },
    {
        "OBJECT_NAME": "BEIDOU-3 G3 (C61)",
        "OBJECT_ID": "2020-040A",
        "EPOCH": "2025-11-14T20:57:21.716064",
        "MEAN_MOTION": 1.00265793,
        "ECCENTRICITY": 0.00048479,
        "INCLINATION": 1.9226,
        "RA_OF_ASC_NODE": 66.3317,
        "ARG_OF_PERICENTER": 303.512,
        "MEAN_ANOMALY": 109.1672,
        "EPHEMERIS_TYPE": 0,
        "CLASSIFICATION_TYPE": "U",
        "NORAD_CAT_ID": 45807,
        "ELEMENT_SET_NO": 999,
        "REV_AT_EPOCH": 1992,
        "BSTAR": 0,
        "MEAN_MOTION_DOT": -3.48e-6,
        "MEAN_MOTION_DDOT": 0
    }
]